<?xml version="1.0" encoding="UTF-8"?>
<osm version="0.6" generator="generate_autoware_map.py">
  <MetaInfo format_version="1" map_version="1"/>
  <node id="1" lat="39.8557849442" lon="116.1559484833">
    <tag k="local_x" v="0"/>
    <tag k="local_y" v="0"/>
    <tag k="ele" v="0"/>
  </node>
  <node id="2" lat="39.8559249577" lon="116.1559417778">
    <tag k="local_x" v="-0.5738"/>
    <tag k="local_y" v="15.546"/>
    <tag k="ele" v="0"/>
  </node>
  <node id="3" lat="39.8557845677" lon="116.1559352464">
    <tag k="local_x" v="-1.1327"/>
    <tag k="local_y" v="-0.0418"/>
    <tag k="ele" v="0"/>
  </node>
  <node id="4" lat="39.8559245812" lon="116.1559285408">
    <tag k="local_x" v="-1.7065"/>
    <tag k="local_y" v="15.5042"/>
    <tag k="ele" v="0"/>
  </node>
  <node id="5" lat="39.8557853208" lon="116.1559617203">
    <tag k="local_x" v="1.1327"/>
    <tag k="local_y" v="0.0418"/>
    <tag k="ele" v="0"/>
  </node>
  <node id="6" lat="39.8559253343" lon="116.1559550148">
    <tag k="local_x" v="0.5589"/>
    <tag k="local_y" v="15.5878"/>
    <tag k="ele" v="0"/>
  </node>
  <way id="7">
    <nd ref="1"/>
    <nd ref="2"/>
  </way>
  <way id="8">
    <nd ref="3"/>
    <nd ref="4"/>
    <tag k="type" v="line_thin"/>
    <tag k="subtype" v="solid"/>
  </way>
  <way id="9">
    <nd ref="5"/>
    <nd ref="6"/>
    <tag k="type" v="line_thin"/>
    <tag k="subtype" v="solid"/>
  </way>
  <relation id="10">
    <member type="way" role="left" ref="8"/>
    <member type="way" role="right" ref="9"/>
    <member type="way" role="centerline" ref="7"/>
    <tag k="type" v="lanelet"/>
    <tag k="subtype" v="road"/>
    <tag k="speed_limit" v="10"/>
    <tag k="location" v="urban"/>
    <tag k="one_way" v="yes"/>
  </relation>
</osm>
